{
  "type": "FeatureCollection",
  "features": [
    {
      "type": "Feature",
      "properties": {
        "norad_id": 32230,
        "name": "FENGYUN 1C DEB",
        "group": "fengyun-1c-debris",
        "lat": 20.69716997240479,
        "lon": -31.23147849919547,
        "alt_km": 709.0880748186137,
        "timestamp": "2025-12-21T05:44:51.871805+00:00",
        "meta_object_name": "FENGYUN 1C DEB",
        "meta_object_id": "1999-025CWC",
        "meta_epoch": "2025-12-20T09:22:08.439744",
        "meta_mean_motion": 14.56275202,
        "meta_eccentricity": 0.00497589,
        "meta_inclination": 98.8696,
        "meta_ra_of_asc_node": 144.4839,
        "meta_arg_of_pericenter": 64.7578,
        "meta_mean_anomaly": 324.6156,
        "meta_ephemeris_type": 0,
        "meta_classification_type": "U",
        "meta_norad_cat_id": 32230,
        "meta_element_set_no": 999,
        "meta_rev_at_epoch": 60781,
        "meta_bstar": 0.001606742,
        "meta_mean_motion_dot": 7.185e-05,
        "meta_mean_motion_ddot": 0,
        "tle_line1": "1 32230U 99025CWC 25354.39037546  .00007185  00000+0  16067-2 0  9993",
        "tle_line2": "2 32230  98.8696 144.4839 0049758  64.7578 324.6156 14.56275202607814"
      },
      "geometry": {
        "type": "Point",
        "coordinates": [
          -31.23147849919547,
          20.69716997240479
        ]
      }
    },
    {
      "type": "Feature",
      "properties": {
        "norad_id": 32234,
        "name": "FENGYUN 1C DEB",
        "group": "fengyun-1c-debris",
        "lat": -9.302059371278267,
        "lon": 23.035186909897647,
        "alt_km": 972.1503265344008,
        "timestamp": "2025-12-21T05:44:51.871815+00:00",
        "meta_object_name": "FENGYUN 1C DEB",
        "meta_object_id": "1999-025CWG",
        "meta_epoch": "2025-12-14T12:38:46.497984",
        "meta_mean_motion": 13.9413283,
        "meta_eccentricity": 0.01374559,
        "meta_inclination": 98.529,
        "meta_ra_of_asc_node": 198.2432,
        "meta_arg_of_pericenter": 331.2039,
        "meta_mean_anomaly": 28.1585,
        "meta_ephemeris_type": 0,
        "meta_classification_type": "U",
        "meta_norad_cat_id": 32234,
        "meta_element_set_no": 999,
        "meta_rev_at_epoch": 93234,
        "meta_bstar": 0.0014985343,
        "meta_mean_motion_dot": 2.108e-05,
        "meta_mean_motion_ddot": 0,
        "tle_line1": "1 32234U 99025CWG 25348.52692706  .00002108  00000+0  14985-2 0  9997",
        "tle_line2": "2 32234  98.5290 198.2432 0137455 331.2039  28.1585 13.94132830932348"
      },
      "geometry": {
        "type": "Point",
        "coordinates": [
          23.035186909897647,
          -9.302059371278267
        ]
      }
    },
    {
      "type": "Feature",
      "properties": {
        "norad_id": 32241,
        "name": "FENGYUN 1C DEB",
        "group": "fengyun-1c-debris",
        "lat": -24.050496923232853,
        "lon": -159.05243087948523,
        "alt_km": 696.5189014741063,
        "timestamp": "2025-12-21T05:44:51.871825+00:00",
        "meta_object_name": "FENGYUN 1C DEB",
        "meta_object_id": "1999-025CWP",
        "meta_epoch": "2025-12-17T08:21:13.096800",
        "meta_mean_motion": 14.28778702,
        "meta_eccentricity": 0.01465119,
        "meta_inclination": 99.0771,
        "meta_ra_of_asc_node": 20.9898,
        "meta_arg_of_pericenter": 210.2379,
        "meta_mean_anomaly": 149.0287,
        "meta_ephemeris_type": 0,
        "meta_classification_type": "U",
        "meta_norad_cat_id": 32241,
        "meta_element_set_no": 999,
        "meta_rev_at_epoch": 93889,
        "meta_bstar": 0.0010923987,
        "meta_mean_motion_dot": 3.039e-05,
        "meta_mean_motion_ddot": 0,
        "tle_line1": "1 32241U 99025CWP 25351.34806825  .00003039  00000+0  10924-2 0  9991",
        "tle_line2": "2 32241  99.0771  20.9898 0146511 210.2379 149.0287 14.28778702938899"
      },
      "geometry": {
        "type": "Point",
        "coordinates": [
          -159.05243087948523,
          -24.050496923232853
        ]
      }
    },
    {
      "type": "Feature",
      "properties": {
        "norad_id": 32243,
        "name": "FENGYUN 1C DEB",
        "group": "fengyun-1c-debris",
        "lat": 46.5726985496372,
        "lon": -152.0459413705307,
        "alt_km": 708.7651467928736,
        "timestamp": "2025-12-21T05:44:51.871837+00:00",
        "meta_object_name": "FENGYUN 1C DEB",
        "meta_object_id": "1999-025CWR",
        "meta_epoch": "2025-12-20T06:54:58.008096",
        "meta_mean_motion": 14.04660142,
        "meta_eccentricity": 0.02690971,
        "meta_inclination": 98.2673,
        "meta_ra_of_asc_node": 18.2504,
        "meta_arg_of_pericenter": 102.1335,
        "meta_mean_anomaly": 261.0117,
        "meta_ephemeris_type": 0,
        "meta_classification_type": "U",
        "meta_norad_cat_id": 32243,
        "meta_element_set_no": 999,
        "meta_rev_at_epoch": 93694,
        "meta_bstar": 0.0015029766,
        "meta_mean_motion_dot": 3.288e-05,
        "meta_mean_motion_ddot": 0,
        "tle_line1": "1 32243U 99025CWR 25354.28817139  .00003288  00000+0  15030-2 0  9998",
        "tle_line2": "2 32243  98.2673  18.2504 0269097 102.1335 261.0117 14.04660142936946"
      },
      "geometry": {
        "type": "Point",
        "coordinates": [
          -152.0459413705307,
          46.5726985496372
        ]
      }
    },
    {
      "type": "Feature",
      "properties": {
        "norad_id": 32245,
        "name": "FENGYUN 1C DEB",
        "group": "fengyun-1c-debris",
        "lat": 80.6267594614517,
        "lon": 79.23373576411376,
        "alt_km": 681.8281167511477,
        "timestamp": "2025-12-21T05:44:51.871847+00:00",
        "meta_object_name": "FENGYUN 1C DEB",
        "meta_object_id": "1999-025CWT",
        "meta_epoch": "2025-12-16T06:38:31.473888",
        "meta_mean_motion": 14.77030772,
        "meta_eccentricity": 0.0097149,
        "meta_inclination": 98.6547,
        "meta_ra_of_asc_node": 186.5841,
        "meta_arg_of_pericenter": 330.7675,
        "meta_mean_anomaly": 28.8116,
        "meta_ephemeris_type": 0,
        "meta_classification_type": "U",
        "meta_norad_cat_id": 32245,
        "meta_element_set_no": 999,
        "meta_rev_at_epoch": 66158,
        "meta_bstar": 0.00082943136,
        "meta_mean_motion_dot": 6.263e-05,
        "meta_mean_motion_ddot": 0,
        "tle_line1": "1 32245U 99025CWT 25350.27675317  .00006263  00000+0  82943-3 0  9999",
        "tle_line2": "2 32245  98.6547 186.5841 0097149 330.7675  28.8116 14.77030772661581"
      },
      "geometry": {
        "type": "Point",
        "coordinates": [
          79.23373576411376,
          80.6267594614517
        ]
      }
    },
    {
      "type": "Feature",
      "properties": {
        "norad_id": 32304,
        "name": "FENGYUN 1C DEB",
        "group": "fengyun-1c-debris",
        "lat": 5.718484679502593,
        "lon": -50.17069121176668,
        "alt_km": 759.3165355437504,
        "timestamp": "2025-12-21T05:44:51.871857+00:00",
        "meta_object_name": "FENGYUN 1C DEB",
        "meta_object_id": "1999-025CWV",
        "meta_epoch": "2025-12-03T02:19:20.087328",
        "meta_mean_motion": 14.50391603,
        "meta_eccentricity": 0.00495576,
        "meta_inclination": 99.3949,
        "meta_ra_of_asc_node": 290.5539,
        "meta_arg_of_pericenter": 255.7789,
        "meta_mean_anomaly": 103.7894,
        "meta_ephemeris_type": 0,
        "meta_classification_type": "U",
        "meta_norad_cat_id": 32304,
        "meta_element_set_no": 999,
        "meta_rev_at_epoch": 56133,
        "meta_bstar": 0.0019806873,
        "meta_mean_motion_dot": 7.809e-05,
        "meta_mean_motion_ddot": 0,
        "tle_line1": "1 32304U 99025CWV 25337.09676027  .00007809  00000+0  19807-2 0  9994",
        "tle_line2": "2 32304  99.3949 290.5539 0049557 255.7789 103.7894 14.50391603561335"
      },
      "geometry": {
        "type": "Point",
        "coordinates": [
          -50.17069121176668,
          5.718484679502593
        ]
      }
    },
    {
      "type": "Feature",
      "properties": {
        "norad_id": 32308,
        "name": "FENGYUN 1C DEB",
        "group": "fengyun-1c-debris",
        "lat": -31.533914817340904,
        "lon": 51.745632052107645,
        "alt_km": 850.1886121904226,
        "timestamp": "2025-12-21T05:44:51.871867+00:00",
        "meta_object_name": "FENGYUN 1C DEB",
        "meta_object_id": "1999-025CWZ",
        "meta_epoch": "2025-12-18T02:43:23.295648",
        "meta_mean_motion": 14.05525608,
        "meta_eccentricity": 0.01083328,
        "meta_inclination": 97.7739,
        "meta_ra_of_asc_node": 44.2538,
        "meta_arg_of_pericenter": 44.9982,
        "meta_mean_anomaly": 315.9904,
        "meta_ephemeris_type": 0,
        "meta_classification_type": "U",
        "meta_norad_cat_id": 32308,
        "meta_element_set_no": 999,
        "meta_rev_at_epoch": 65487,
        "meta_bstar": 0.0012185561,
        "meta_mean_motion_dot": 2.054e-05,
        "meta_mean_motion_ddot": 0,
        "tle_line1": "1 32308U 99025CWZ 25352.11346407  .00002054  00000+0  12186-2 0  9994",
        "tle_line2": "2 32308  97.7739  44.2538 0108332  44.9982 315.9904 14.05525608654876"
      },
      "geometry": {
        "type": "Point",
        "coordinates": [
          51.745632052107645,
          -31.533914817340904
        ]
      }
    }
  ]
}